STARLINK-36550          
1 67495U 26012C   26120.44242257  .00016160  00000+0  59507-3 0  9995
2 67495  43.0037  22.4079 0001441 269.2102  90.8584 15.27602691 15678
STARLINK-36534          
1 67496U 26012D   26120.43600020  .00038379  00000+0  13974-2 0  9994
2 67496  43.0031  22.3581 0001440 277.2312  82.8376 15.27569490 15670
STARLINK-36555          
1 67497U 26012E   26120.43856985  .00020066  00000+0  73647-3 0  9996
2 67497  43.0071  22.3737 0001259 269.2611  90.8096 15.27592062 15678
STARLINK-36081          
1 67498U 26012F   26120.43214519  .00021048  00000+0  77145-3 0  9996
2 67498  43.0031  22.3323 0001352 283.4529  76.6172 15.27612800 15676
STARLINK-36558          
1 67499U 26012G   26120.42829278  .00029546  00000+0  10787-2 0  9999
2 67499  43.0061  22.3030 0001091 279.4561  80.6167 15.27586543 15679
STARLINK-36557          
1 67500U 26012H   26120.42444018  .00013936  00000+0  51503-3 0  9995
2 67500  43.0033  22.2618 0000820 279.4656  80.6103 15.27577627 15679
STARLINK-36433          
1 67501U 26012J   26120.42057250  .00020004  00000+0  73419-3 0  9998
2 67501  43.0030  22.2310 0001072 248.4859 111.5878 15.27592495 15670
STARLINK-36554          
1 67502U 26012K   26120.41415449  .00019471  00000+0  71483-3 0  9991
2 67502  43.0018  22.1837 0001028 253.4831 106.5908 15.27597970 15678
STARLINK-36552          
1 67503U 26012L   26120.41029808  .00016802  00000+0  61824-3 0  9995
2 67503  43.0010  22.1433 0000956 254.3412 105.7334 15.27605398 15675
STARLINK-36512          
1 67504U 26012M   26120.01027431  .00027763  00000+0  10140-2 0  9994
2 67504  43.0003  24.3091 0001387 267.4740  92.5952 15.27600439 15614
STARLINK-36545          
1 67505U 26012N   26120.00641536  .00009968  00000+0  37111-3 0  9997
2 67505  43.0005  24.2772 0001490 257.3827 102.6858 15.27592605 15614
STARLINK-36553          
1 67506U 26012P   26120.06794514  .00038086  00000+0  13851-2 0  9996
2 67506  43.0050  23.8781 0001825 260.2203  99.8442 15.27612289 15621
STARLINK-36521          
1 67507U 26012Q   26119.99999160  .00021922  00000+0  80346-3 0  9996
2 67507  43.0032  24.2259 0001406 258.6864 101.3830 15.27593760 15617
STARLINK-36526          
1 67508U 26012R   26120.45384182  .00029480  00000+0  10760-2 0  9991
2 67508  43.0042  21.6122 0001341 279.8969  80.1731 15.27597308 15681
STARLINK-36541          
1 67509U 26012S   26120.44885544  .00021960  00000+0  80493-3 0  9995
2 67509  43.0089  22.4649 0000832 271.3140  88.7617 15.27589971 15671
STARLINK-36549          
1 67510U 26012T   26120.12819173  .00021027  00000+0  77100-3 0  9992
2 67510  43.0041  23.4536 0001634 268.4773  91.5891 15.27598625 15635
STARLINK-36540          
1 67511U 26012U   26120.44499809  .00030319  00000+0  11063-2 0  9997
2 67511  43.0061  22.4340 0001862 264.1422  95.9218 15.27592284 15677
STARLINK-36538          
1 67512U 26012V   26120.43985060  .00030454  00000+0  11107-2 0  9995
2 67512  43.0053  22.3773 0001456 289.6469  70.4225 15.27608974 15670
STARLINK-36531          
1 67513U 26012W   26120.42957089  .00027800  00000+0  10150-2 0  9993
2 67513  43.0022  22.2976 0001933 275.6790  84.3841 15.27609431 15670
STARLINK-36530          
1 67514U 26012X   26120.09878615  .00038155  00000+0  13880-2 0  9992
2 67514  43.0054  24.1160 0001466 272.6935  87.3749 15.27600555 15624
STARLINK-36543          
1 67515U 26012Y   26120.42187474  .00022952  00000+0  84110-3 0  9999
2 67515  43.0035  22.2396 0001210 266.7853  93.2861 15.27574894 15676
STARLINK-36537          
1 67516U 26012Z   26120.41158200  .00021283  00000+0  78019-3 0  9991
2 67516  43.0004  22.1503 0001104 273.6546  86.4179 15.27601757 15675
STARLINK-36544          
1 67517U 26012AA  26120.41800543  .00019453  00000+0  71404-3 0  9993
2 67517  43.0038  22.2022 0002005 281.4372  78.6254 15.27604131 15671
STARLINK-36412          
1 67518U 26012AB  26120.07308448  .00010873  00000+0  40397-3 0  9997
2 67518  43.0011  23.9124 0001761 271.9881  88.0769 15.27587072 15626
STARLINK-36415          
1 67519U 26012AC  26120.06923605  .00022283  00000+0  81603-3 0  9998
2 67519  43.0034  23.8778 0001445 257.0385 103.0305 15.27612451 15623
STARLINK-36547          
1 67520U 26012AD  26120.07694276  .00015044  00000+0  55488-3 0  9999
2 67520  43.0014  23.9415 0001671 275.7476  84.3185 15.27592480 15627
STARLINK-36444          
1 67521U 26012AE  26120.08079739  .00032410  00000+0  11814-2 0  9992
2 67521  43.0012  23.9732 0001852 280.3191  79.7452 15.27600645 15623
HULIANWANG DIGUI-146    
1 67522U 26013A   26120.49526343 -.00000054  00000+0  15189-3 0  9997
2 67522  50.0062 166.9331 0000703 293.7165  66.3633 13.29326647 13700
HULIANWANG DIGUI-147    
1 67523U 26013B   26120.56207506 -.00000050  00000+0  16036-3 0  9991
2 67523  50.0034 166.5893 0000624 290.7738  69.3067 13.29327170 13711
HULIANWANG DIGUI-148    
1 67524U 26013C   26120.55370446 -.00000048  00000+0  16472-3 0  9996
2 67524  50.0072 166.5860 0000634 294.7460  65.3346 13.29327960 13718
HULIANWANG DIGUI-149    
1 67525U 26013D   26120.54539668 -.00000047  00000+0  16535-3 0  9998
2 67525  50.0066 166.5375 0000754 308.2176  51.8628 13.29325815 13711
HULIANWANG DIGUI-150    
1 67526U 26013E   26120.52869465 -.00000063  00000+0  13107-3 0  9998
2 67526  50.0027 166.4137 0000660 293.9673  66.1130 13.29325792 13735
HULIANWANG DIGUI-151    
1 67527U 26013F   26120.38667717 -.00000065  00000+0  12792-3 0  9990
2 67527  50.0072 167.0374 0000650 290.8469  69.2334 13.29326446 13696
HULIANWANG DIGUI-152    
1 67528U 26013G   26120.44514986 -.00000061  00000+0  13645-3 0  9991
2 67528  50.0020 166.6341 0000647 293.2137  66.8667 13.29326162 13703
HULIANWANG DIGUI-153    
1 67529U 26013H   26120.51196669 -.00000063  00000+0  13227-3 0  9992
2 67529  50.0023 166.3222 0000639 294.2242  65.8563 13.29326294 13701
HULIANWANG DIGUI-154    
1 67530U 26013J   26120.42842740 -.00000062  00000+0  13387-3 0  9998
2 67530  50.0046 166.5737 0000653 293.1412  66.9391 13.29326559 13697
STARLINK-36587          
1 67532U 26014A   26120.58335648  .00114836  00000+0  20876-2 0  9996
2 67532  97.2845   7.9160 0001817  89.9021 208.3508 15.49117700  6006
STARLINK-36417          
1 67533U 26014B   26120.58335648 -.01454406  00000+0 -28837-1 0  9994
2 67533  97.2855   7.8734 0002180  63.1698 138.3342 15.50242555  6054
STARLINK-36576          
1 67534U 26014C   26120.58335648 -.01822354  00000+0 -39270-1 0  9999
2 67534  97.2846   7.9303 0001927 102.4845 225.1175 15.48105424  5987
STARLINK-36574          
1 67535U 26014D   26120.58335648  .00134204  00000+0  24336-2 0  9995
2 67535  97.2853   7.8733 0001672  92.0040 104.5558 15.49115661  5902
STARLINK-36572          
1 67536U 26014E   26120.58335648  .00124595  00000+0  22621-2 0  9993
2 67536  97.2851   7.8827 0001681 101.4635 120.4705 15.49117490  5688
STARLINK-36561          
1 67537U 26014F   26120.58335648  .00106006  00000+0  19290-2 0  9999
2 67537  97.2847   7.8130 0001208  93.1664 327.5209 15.49123989  6001
STARLINK-36397          
1 67538U 26014G   26120.58335648  .00116839  00000+0  21236-2 0  9998
2 67538  97.2849   7.8075 0001777  92.8107 314.6534 15.49116813  6007
STARLINK-36573          
1 67539U 26014H   26120.58335648 -.01804830  00000+0 -39225-1 0  9993
2 67539  97.2841   7.9516 0001707  96.3230 279.5560 15.47828944  5897
STARLINK-36585          
1 67540U 26014J   26120.58335648  .00124011  00000+0  22520-2 0  9999
2 67540  97.2849   7.8875 0001400  96.6841 138.5899 15.49113980  5893
STARLINK-36579          
1 67541U 26014K   26120.58335648 -.01835589  00000+0 -31236-1 0  9995
2 67541  97.2846   7.9593 0001730  88.5049 308.9459 15.54709631  6004
STARLINK-35934          
1 67542U 26014L   26120.58335648  .00132282  00000+0  23985-2 0  9996
2 67542  97.2847   7.9789 0001634  92.6059 351.0690 15.49125886  5950
STARLINK-36581          
1 67543U 26014M   26120.58335648 -.01800015  00000+0 -38774-1 0  9997
2 67543  97.2851   7.9568 0001550 102.7647 284.6365 15.48074884  5909
STARLINK-36565          
1 67544U 26014N   26120.58335648 -.01793339  00000+0 -39342-1 0  9990
2 67544  97.2848   7.9398 0001946  96.7584 251.7919 15.47535488  5998
STARLINK-36583          
1 67545U 26014P   26120.58335648 -.01830146  00000+0 -31443-1 0  9993
2 67545  97.2844   7.9479 0001470  93.9477 276.7601 15.54441981  6052
STARLINK-36580          
1 67546U 26014Q   26120.58335648 -.01813143  00000+0 -40812-1 0  9992
2 67546  97.2847   7.9215 0001883  84.9709 220.2168 15.46837698  6002
STARLINK-36584          
1 67547U 26014R   26120.58335648  .00119970  00000+0  21793-2 0  9995
2 67547  97.2847   7.9814 0001817  80.0957  14.0882 15.49119397  6001
STARLINK-36586          
1 67548U 26014S   26120.58335648 -.01806665  00000+0 -38724-1 0  9994
2 67548  97.2848   8.0208 0001750  74.3803 101.5101 15.48228439  6007
STARLINK-36564          
1 67549U 26014T   26120.58335648 -.01796748  00000+0 -38434-1 0  9993
2 67549  97.2846   7.9109 0002460  97.5608 182.8885 15.48258811  5987
STARLINK-36563          
1 67550U 26014U   26120.58335648 -.01833715  00000+0 -32569-1 0  9994
2 67550  97.2842   7.9781 0001559  82.1764 352.2638 15.53539384  6008
STARLINK-36566          
1 67551U 26014V   26120.58335648 -.00718417  00000+0 -14133-1 0  9992
2 67551  97.2850   7.8817 0001516  93.1732 129.3153 15.49444797  6055
STARLINK-36567          
1 67552U 26014W   26120.58335648  .00126322  00000+0  22925-2 0  9998
2 67552  97.2848   7.8024 0001245  88.8776 303.4644 15.49123827  6059
STARLINK-36569          
1 67553U 26014X   26120.58335648 -.01769273  00000+0 -36563-1 0  9992
2 67553  97.2851   7.9832 0001529  84.1007   3.9726 15.49193531  6055
STARLINK-36395          
1 67554U 26014Y   26120.59933755  .00142170  00000+0  93560-3 0  9997
2 67554  97.2860   8.0710 0001741  85.5638 274.5827 15.75255276 16732
